CZ-2C R/B               
1 54039U 22132E   25353.94239710  .00022653  00000+0  33248-3 0  9994
2 54039  97.2938 350.2808 0022036  32.7354 327.5261 15.55236994177958
GSLV R/B                
1 54149U 22138AN  25353.81164134  .00001660  00000+0  14407-3 0  9996
2 54149  87.3824 193.1055 0024166  82.3631 278.0344 14.96162879171980
XRISM                   
1 57800U 23137A   25353.57504608  .00003667  00000+0  21210-3 0  9999
2 57800  31.0027  81.4100 0007694 313.8682  46.1320 15.10398433125669
ACS3                    
1 59588U 24077B   25353.90256002  .00019692  00000+0  16775-1 0  9990
2 59588  97.2634 307.9082 0076182 320.7274  38.8376 13.85811614 83134
SZ-21 MODULE            
1 66515U 25246C   25353.24981399  .00021457  00000+0  23433-3 0  9991
2 66515  41.4773 336.3242 0005734 295.0263  64.9981 15.62811821  5467
